[{"OBJECT_NAME":"GEOEYE 1","OBJECT_ID":"2008-042A","EPOCH":"2026-03-09T21:23:49.829280","MEAN_MOTION":14.64767673,"ECCENTRICITY":0.00039854,"INCLINATION":98.1206,"RA_OF_ASC_NODE":144.0766,"ARG_OF_PERICENTER":27.9279,"MEAN_ANOMALY":332.2138,"EPHEMERIS_TYPE":0,"CLASSIFICATION_TYPE":"U","NORAD_CAT_ID":33331,"ELEMENT_SET_NO":999,"REV_AT_EPOCH":93561,"BSTAR":0.00013730387,"MEAN_MOTION_DOT":6.84e-6,"MEAN_MOTION_DDOT":0},{"OBJECT_NAME":"CZ-6A DEB","OBJECT_ID":"2024-140W","EPOCH":"2026-03-09T13:21:17.409600","MEAN_MOTION":14.68807978,"ECCENTRICITY":0.01062681,"INCLINATION":89.0074,"RA_OF_ASC_NODE":282.1272,"ARG_OF_PERICENTER":212.4685,"MEAN_ANOMALY":146.9968,"EPHEMERIS_TYPE":0,"CLASSIFICATION_TYPE":"U","NORAD_CAT_ID":60621,"ELEMENT_SET_NO":999,"REV_AT_EPOCH":8463,"BSTAR":0.0011845811,"MEAN_MOTION_DOT":7.555e-5,"MEAN_MOTION_DDOT":0}]
